[{"OBJECT_NAME":"STARLINK-11116 [DTC]","OBJECT_ID":"2024-112H","EPOCH":"2026-03-09T19:52:18.380928","MEAN_MOTION":15.69696736,"ECCENTRICITY":6.559e-5,"INCLINATION":53.1575,"RA_OF_ASC_NODE":265.5167,"ARG_OF_PERICENTER":92.8632,"MEAN_ANOMALY":267.2461,"EPHEMERIS_TYPE":0,"CLASSIFICATION_TYPE":"U","NORAD_CAT_ID":60045,"ELEMENT_SET_NO":999,"REV_AT_EPOCH":10100,"BSTAR":5.199047e-6,"MEAN_MOTION_DOT":4.2e-7,"MEAN_MOTION_DDOT":0},{"OBJECT_NAME":"STARLINK-33633","OBJECT_ID":"2025-063V","EPOCH":"2026-03-09T22:00:01.999584","MEAN_MOTION":15.63168458,"ECCENTRICITY":0.00129891,"INCLINATION":53.1539,"RA_OF_ASC_NODE":39.8759,"ARG_OF_PERICENTER":117.785,"MEAN_ANOMALY":338.2735,"EPHEMERIS_TYPE":0,"CLASSIFICATION_TYPE":"U","NORAD_CAT_ID":63382,"ELEMENT_SET_NO":999,"REV_AT_EPOCH":591,"BSTAR":0.0058075952,"MEAN_MOTION_DOT":0.00581659,"MEAN_MOTION_DDOT":0}]
